H1 CPF 01  gfz 2021 08 19 12  7312 tandemx   
H2 1003001  6202 36605    2021 08 19 12 59 42 2021 08 24 00 00 42   120 1 1  0 0 0
H9
10 0 59446  26622.000000  0    5565504.116  -1565601.327   3736504.120
10 0 59446  26742.000000  0    5933675.486  -1871695.048   2948655.973
10 0 59446  26862.000000  0    6192974.646  -2150551.120   2108881.827
10 0 59446  26982.000000  0    6339401.658  -2395352.267   1231969.013
10 0 59446  27102.000000  0    6371063.927  -2599832.293    333363.505
10 0 59446  27222.000000  0    6288200.387  -2758425.494   -571110.374
10 0 59446  27342.000000  0    6093162.961  -2866402.286  -1465537.871
10 0 59446  27462.000000  0    5790353.725  -2919988.006  -2334203.049
10 0 59446  27582.000000  0    5386121.787  -2916461.261  -3161871.263
10 0 59446  27702.000000  0    4888623.151  -2854229.989  -3934060.088
10 0 59446  27822.000000  0    4307647.613  -2732884.563  -4637293.021
10 0 59446  27942.000000  0    3654416.248  -2553226.081  -5259332.097
10 0 59446  28062.000000  0    2941355.260  -2317269.164  -5789383.000
10 0 59446  28182.000000  0    2181854.807  -2028221.063  -6218271.518
10 0 59446  28302.000000  0    1390015.764  -1690437.673  -6538592.878
10 0 59446  28422.000000  0     580387.016  -1309355.656  -6744828.996
10 0 59446  28542.000000  0    -232298.821   -891404.471  -6833433.008
10 0 59446  28662.000000  0   -1033387.933   -443899.114  -6802882.938
10 0 59446  28782.000000  0   -1808563.234     25084.990  -6653705.028
10 0 59446  28902.000000  0   -2544094.430    506854.249  -6388464.731
10 0 59446  29022.000000  0   -3227075.449    992253.278  -6011727.153
10 0 59446  29142.000000  0   -3845647.871   1471834.148  -5529987.767
10 0 59446  29262.000000  0   -4389208.466   1936035.795  -4951571.947
10 0 59446  29382.000000  0   -4848595.793   2375372.367  -4286502.781
10 0 59446  29502.000000  0   -5216251.544   2780625.566  -3546337.112
10 0 59446  29622.000000  0   -5486353.576   3143036.421  -2743973.737
10 0 59446  29742.000000  0   -5654918.676   3454494.243  -1893434.732
10 0 59446  29862.000000  0   -5719870.306   3707717.654  -1009622.001
10 0 59446  29982.000000  0   -5681068.889   3896421.950   -108053.608
10 0 59446  30102.000000  0   -5540304.072   4015469.535    795414.300
10 0 59446  30222.000000  0   -5301247.011   4060998.036   1684875.849
10 0 59446  30342.000000  0   -4969363.134   4030522.250   2544664.582
10 0 59446  30462.000000  0   -4551789.846   3923008.740   3359637.121
10 0 59446  30582.000000  0   -4057181.643   3738920.800   4115447.425
10 0 59446  30702.000000  0   -3495526.260   3480231.333   4798803.433
10 0 59446  30822.000000  0   -2877937.672   3150405.868   5397702.297
10 0 59446  30942.000000  0   -2216429.762   2754354.903   5901639.760
10 0 59446  31062.000000  0   -1523677.343   2298357.501   6301790.614
10 0 59446  31182.000000  0    -812768.541   1789957.472   6591156.961
10 0 59446  31302.000000  0     -96956.623   1237835.590   6764682.942
10 0 59446  31422.000000  0     610586.738    651659.561   6819338.406
10 0 59446  31542.000000  0    1297013.257     41914.527   6754168.020
10 0 59446  31662.000000  0    1950030.150   -580283.632   6570307.302
10 0 59446  31782.000000  0    2558119.731  -1203390.524   6270964.737
10 0 59446  31902.000000  0    3110743.415  -1815646.487   5861370.080
10 0 59446  32022.000000  0    3598527.524  -2405298.967   5348688.603
10 0 59446  32142.000000  0    4013426.255  -2960828.944   4741901.339
10 0 59446  32262.000000  0    4348859.426  -3471178.447   4051653.563
10 0 59446  32382.000000  0    4599822.292  -3925974.507   3290071.932
10 0 59446  32502.000000  0    4762965.202  -4315744.263   2470552.805
10 0 59446  32622.000000  0    4836640.257  -4632115.455   1607524.053
10 0 59446  32742.000000  0    4820912.728  -4867997.526    716186.282
10 0 59446  32862.000000  0    4717537.612  -5017739.598   -187761.755
10 0 59446  32982.000000  0    4529901.849  -5077259.993  -1088407.725
10 0 59446  33102.000000  0    4262934.192  -5044144.387  -1969915.148
10 0 59446  33222.000000  0    3922983.282  -4917709.749  -2816809.664
10 0 59446  33342.000000  0    3517668.822  -4699032.911  -3614256.283
10 0 59446  33462.000000  0    3055709.601  -4390943.849  -4348321.225
10 0 59446  33582.000000  0    2546733.475  -3997984.287  -5006214.542
10 0 59446  33702.000000  0    2001073.178  -3526332.107  -5576506.991
10 0 59446  33822.000000  0    1429555.317  -2983696.802  -6049318.339
10 0 59446  33942.000000  0     843285.889  -2379188.566  -6416478.371
10 0 59446  34062.000000  0     253435.458  -1723161.357  -6671657.842
10 0 59446  34182.000000  0    -328970.651  -1027033.527  -6810466.715
10 0 59446  34302.000000  0    -893253.144   -303090.391  -6830520.706
10 0 59446  34422.000000  0   -1429269.512    435728.210  -6731477.199
10 0 59446  34542.000000  0   -1927592.213   1176053.098  -6515039.862
10 0 59446  34662.000000  0   -2379670.427   1904321.637  -6184932.460
10 0 59446  34782.000000  0   -2777974.685   2607020.023  -5746842.242
10 0 59446  34902.000000  0   -3116122.675   3270930.769  -5208332.698
10 0 59446  35022.000000  0   -3388984.177   3883380.882  -4578725.002
10 0 59446  35142.000000  0   -3592763.153   4432486.366  -3868947.217
10 0 59446  35262.000000  0   -3725053.085   4907386.938  -3091352.812
10 0 59446  35382.000000  0   -3784865.094   5298465.997  -2259513.025
10 0 59446  35502.000000  0   -3772629.808   5597552.635  -1387984.606
10 0 59446  35622.000000  0   -3690170.364   5798100.490   -492054.806
10 0 59446  35742.000000  0   -3540645.982   5895335.363    412531.490
10 0 59446  35862.000000  0   -3328469.757   5886369.385   1309855.016
10 0 59446  35982.000000  0   -3059198.847   5770278.402   2184112.681
10 0 59446  36102.000000  0   -2739400.088   5548137.809   3019906.297
10 0 59446  36222.000000  0   -2376496.558   5223016.648   3802520.913
10 0 59446  36342.000000  0   -1978599.291   4799932.689   4518188.550
10 0 59446  36462.000000  0   -1554328.118   4285769.087   5154332.692
10 0 59446  36582.000000  0   -1112625.301   3689154.891   5699789.487
10 0 59446  36702.000000  0    -662567.290   3020311.592   6145000.078
10 0 59446  36822.000000  0    -213178.996   2290870.498   6482172.605
10 0 59446  36942.000000  0     226745.817   1513665.843   6705412.233
10 0 59446  37062.000000  0     648815.761    702505.689   6810819.152
10 0 59446  37182.000000  0    1045200.839   -128074.366   6796551.352
10 0 59446  37302.000000  0    1408776.666   -963070.479   6662855.607
10 0 59446  37422.000000  0    1733252.324  -1787281.353   6412063.980
10 0 59446  37542.000000  0    2013279.652  -2585584.433   6048556.284
10 0 59446  37662.000000  0    2244542.441  -3343214.837   5578688.674
10 0 59446  37782.000000  0    2423823.941  -4046041.349   5010687.691
10 0 59446  37902.000000  0    2549051.006  -4680833.924   4354511.814
10 0 59446  38022.000000  0    2619315.791  -5235519.373   3621681.929
10 0 59446  38142.000000  0    2634872.865  -5699419.028   2825081.154
10 0 59446  38262.000000  0    2597111.004  -6063463.288   1978727.957
10 0 59446  38382.000000  0    2508500.798  -6320375.379   1097525.478
10 0 59446  38502.000000  0    2372519.928  -6464821.609    196994.700
10 0 59446  38622.000000  0    2193557.676  -6493526.207   -707006.309
10 0 59446  38742.000000  0    1976799.795  -6405343.687  -1598572.391
10 0 59446  38862.000000  0    1728096.079  -6201286.785  -2462039.675
10 0 59446  38982.000000  0    1453815.751  -5884512.357  -3282268.376
10 0 59446  39102.000000  0    1160694.322  -5460260.511  -4044911.829
10 0 59446  39222.000000  0     855677.723  -4935756.381  -4736666.514
10 0 59446  39342.000000  0     545765.219  -4320074.872  -5345499.908
10 0 59446  39462.000000  0     237855.614  -3623972.771  -5860852.341
10 0 59446  39582.000000  0     -61400.031  -2859691.668  -6273810.181
10 0 59446  39702.000000  0    -345736.052  -2040737.008  -6577248.438
10 0 59446  39822.000000  0    -609397.972  -1181637.668  -6765942.311
10 0 59446  39942.000000  0    -847254.092   -297690.226  -6836648.181
10 0 59446  40062.000000  0   -1054891.487    595309.248  -6788152.710
10 0 59446  40182.000000  0   -1228695.568   1481340.106  -6621290.454
10 0 59446  40302.000000  0   -1365911.579   2344437.186  -6338930.827
10 0 59446  40422.000000  0   -1464687.456   3168971.422  -5945935.123
10 0 59446  40542.000000  0   -1524098.160   3939929.892  -5449082.379
10 0 59446  40662.000000  0   -1544150.000   4643188.524  -4856963.365
10 0 59446  40782.000000  0   -1525765.764   5265774.941  -4179843.715
10 0 59446  40902.000000  0   -1470750.007   5796114.830  -3429495.310
10 0 59446  41022.000000  0   -1381734.543   6224255.866  -2618999.205
10 0 59446  41142.000000  0   -1262105.727   6542065.837  -1762523.245
10 0 59446  41262.000000  0   -1115914.494   6743399.174   -875075.131
10 0 59446  41382.000000  0    -947771.305   6824226.233     27762.172
10 0 59446  41502.000000  0    -762727.918   6782723.938    930109.615
10 0 59446  41622.000000  0    -566149.137   6619321.636   1816081.329
10 0 59446  41742.000000  0    -363578.061   6336698.462   2670074.662
10 0 59446  41862.000000  0    -160598.536   5939735.439   3477051.905
10 0 59446  41982.000000  0      37301.523   5435425.935   4222810.085
10 0 59446  42102.000000  0     224862.857   4832746.383   4894237.479
10 0 59446  42222.000000  0     397181.594   4142481.583   5479545.889
10 0 59446  42342.000000  0     549825.348   3377023.138   5968471.765
10 0 59446  42462.000000  0     678936.548   2550139.367   6352453.601
10 0 59446  42582.000000  0     781320.385   1676720.709   6624775.677
10 0 59446  42702.000000  0     854516.754    772507.372   6780679.763
10 0 59446  42822.000000  0     896854.512   -146195.927   6817442.334
10 0 59446  42942.000000  0     907487.262  -1062812.658   6734419.849
10 0 59446  43062.000000  0     886409.891  -1960793.578   6533060.260
99
